{
  "norad_id": 51753,
  "name": "STARLINK-3507",
  "history": [
    {
      "epoch": "2026-03-28T17:11:39.310080",
      "apogee_km": 540.6929520494305,
      "perigee_km": 538.8255351374355,
      "latitude_deg": -17.45679975727726,
      "longitude_deg": 144.0770112001337,
      "semi_major_axis_km": 6917.896243593433,
      "eccentricity": 0.00013497,
      "inclination_deg": 53.2178,
      "raan_deg": 223.7174,
      "arg_perigee_deg": 94.1018,
      "mean_anomaly_deg": 266.0129,
      "mean_motion_rev_day": 15.08834813
    }
  ]
}